KUIPER-00016            
1 63732U 25088J   25267.85674956  .00000068  00000+0  38244-4 0  9994
2 63732  51.8990 124.9051 0010614 236.8497 123.1447 14.79934913 22778
KUIPER-00018            
1 63733U 25088K   25268.27428644  .00004228  00000+0  61279-3 0  9998
2 63733  51.9006 111.3074 0011508 265.1713  94.7934 14.77792700 23007
KUIPER-00019            
1 63734U 25088L   25268.27035198  .00003632  00000+0  50810-3 0  9994
2 63734  51.8988 110.5305 0008894 275.8748  84.1200 14.79683126 23017
KUIPER-00020            
1 63735U 25088M   25266.98491085  .00004580  00000+0  63076-3 0  9993
2 63735  51.8991 120.1988 0007293 244.9369 115.0837 14.79832031 22979
KUIPER-00021            
1 63736U 25088N   25268.26997950  .00006522  00000+0  88283-3 0  9994
2 63736  51.8988 115.5568 0005471 250.8689 109.1682 14.79974348 22986
KUIPER-00023            
1 63737U 25088P   25267.59383779 -.00003514  00000+0 -43220-3 0  9990
2 63737  51.8987 120.0155 0010559 263.9237  96.0522 14.79855795 23168
KUIPER-00024            
1 63738U 25088Q   25268.33339120  .00014039  00000+0  18738-2 0  9992
2 63738  51.9008 103.9671 0003372 271.6113 158.5960 14.79771270  5683
KUIPER-00025            
1 63739U 25088R   25267.86751036  .00006006  00000+0  81508-3 0  9995
2 63739  51.8980 114.8642 0008676 251.4176 108.5844 14.79978451 23246
